{"type": "FeatureCollection", "features": [{"type": "Feature", "properties": {"norad_id": 22675, "name": "COSMOS 2251", "group": "cosmos-2251-debris", "lat": -4.019504068574875, "lon": 132.36982291886494, "alt_km": 799.2510383837098, "timestamp": "2025-12-15T07:02:38.007035+00:00", "meta": {"OBJECT_NAME": "COSMOS 2251", "OBJECT_ID": "1993-036A", "EPOCH": "2025-12-14T21:48:46.837152", "MEAN_MOTION": 14.3320541, "ECCENTRICITY": 0.0024056, "INCLINATION": 74.0398, "RA_OF_ASC_NODE": 311.92, "ARG_OF_PERICENTER": 33.572, "MEAN_ANOMALY": 326.6949, "EPHEMERIS_TYPE": 0, "CLASSIFICATION_TYPE": "U", "NORAD_CAT_ID": 22675, "ELEMENT_SET_NO": 999, "REV_AT_EPOCH": 69804, "BSTAR": 5.5544953e-05, "MEAN_MOTION_DOT": 1.27e-06, "MEAN_MOTION_DDOT": 0}, "tle": {"line1": "1 22675U 93036A   25348.90887543  .00000127  00000+0  55545-4 0  9996", "line2": "2 22675  74.0398 311.9200 0024056  33.5720 326.6949 14.33205410698047"}}, "geometry": {"type": "Point", "coordinates": [132.36982291886494, -4.019504068574875]}}, {"type": "Feature", "properties": {"norad_id": 33757, "name": "COSMOS 2251 DEB", "group": "cosmos-2251-debris", "lat": -35.30980080408904, "lon": 150.64490047955576, "alt_km": 793.6340651345663, "timestamp": "2025-12-15T07:02:38.007063+00:00", "meta": {"OBJECT_NAME": "COSMOS 2251 DEB", "OBJECT_ID": "1993-036E", "EPOCH": "2025-12-14T21:48:39.730752", "MEAN_MOTION": 14.3258152, "ECCENTRICITY": 0.00153357, "INCLINATION": 74.0369, "RA_OF_ASC_NODE": 319.6498, "ARG_OF_PERICENTER": 332.568, "MEAN_ANOMALY": 61.2233, "EPHEMERIS_TYPE": 0, "CLASSIFICATION_TYPE": "U", "NORAD_CAT_ID": 33757, "ELEMENT_SET_NO": 999, "REV_AT_EPOCH": 88027, "BSTAR": 5.046478e-05, "MEAN_MOTION_DOT": 1.11e-06, "MEAN_MOTION_DDOT": 0}, "tle": {"line1": "1 33757U 93036E   25348.90879318  .00000111  00000+0  50465-4 0  9999", "line2": "2 33757  74.0369 319.6498 0015335 332.5680  61.2233 14.32581520880273"}}, "geometry": {"type": "Point", "coordinates": [150.64490047955576, -35.30980080408904]}}, {"type": "Feature", "properties": {"norad_id": 33758, "name": "COSMOS 2251 DEB", "group": "cosmos-2251-debris", "lat": -21.81939385360172, "lon": -156.36436257592655, "alt_km": 719.3055749544919, "timestamp": "2025-12-15T07:02:38.007078+00:00", "meta": {"OBJECT_NAME": "COSMOS 2251 DEB", "OBJECT_ID": "1993-036F", "EPOCH": "2025-12-14T18:14:27.460320", "MEAN_MOTION": 14.51609705, "ECCENTRICITY": 0.00173498, "INCLINATION": 74.0278, "RA_OF_ASC_NODE": 211.2245, "ARG_OF_PERICENTER": 277.9037, "MEAN_ANOMALY": 152.695, "EPHEMERIS_TYPE": 0, "CLASSIFICATION_TYPE": "U", "NORAD_CAT_ID": 33758, "ELEMENT_SET_NO": 999, "REV_AT_EPOCH": 88334, "BSTAR": 0.0007133013, "MEAN_MOTION_DOT": 2.836e-05, "MEAN_MOTION_DDOT": 0}, "tle": {"line1": "1 33758U 93036F   25348.76004005  .00002836  00000+0  71330-3 0  9996", "line2": "2 33758  74.0278 211.2245 0017349 277.9037 152.6950 14.51609705883344"}}, "geometry": {"type": "Point", "coordinates": [-156.36436257592655, -21.81939385360172]}}, {"type": "Feature", "properties": {"norad_id": 33760, "name": "COSMOS 2251 DEB", "group": "cosmos-2251-debris", "lat": 44.70988351957935, "lon": 80.30419800240544, "alt_km": 775.4271808464737, "timestamp": "2025-12-15T07:02:38.007091+00:00", "meta": {"OBJECT_NAME": "COSMOS 2251 DEB", "OBJECT_ID": "1993-036H", "EPOCH": "2025-12-14T22:23:11.728896", "MEAN_MOTION": 14.35674173, "ECCENTRICITY": 0.00199605, "INCLINATION": 74.0322, "RA_OF_ASC_NODE": 277.4314, "ARG_OF_PERICENTER": 15.2073, "MEAN_ANOMALY": 53.8722, "EPHEMERIS_TYPE": 0, "CLASSIFICATION_TYPE": "U", "NORAD_CAT_ID": 33760, "ELEMENT_SET_NO": 999, "REV_AT_EPOCH": 88156, "BSTAR": 0.0001163524, "MEAN_MOTION_DOT": 3.1e-06, "MEAN_MOTION_DDOT": 0}, "tle": {"line1": "1 33760U 93036H   25348.93277464  .00000310  00000+0  11635-3 0  9996", "line2": "2 33760  74.0322 277.4314 0019960  15.2073  53.8722 14.35674173881566"}}, "geometry": {"type": "Point", "coordinates": [80.30419800240544, 44.70988351957935]}}, {"type": "Feature", "properties": {"norad_id": 33761, "name": "COSMOS 2251 DEB", "group": "cosmos-2251-debris", "lat": 52.141239448848204, "lon": 45.818182324582, "alt_km": 760.0811920745109, "timestamp": "2025-12-15T07:02:38.007103+00:00", "meta": {"OBJECT_NAME": "COSMOS 2251 DEB", "OBJECT_ID": "1993-036J", "EPOCH": "2025-12-14T19:04:40.345824", "MEAN_MOTION": 14.42552958, "ECCENTRICITY": 0.00231244, "INCLINATION": 74.0367, "RA_OF_ASC_NODE": 248.3497, "ARG_OF_PERICENTER": 328.3279, "MEAN_ANOMALY": 88.1057, "EPHEMERIS_TYPE": 0, "CLASSIFICATION_TYPE": "U", "NORAD_CAT_ID": 33761, "ELEMENT_SET_NO": 999, "REV_AT_EPOCH": 88264, "BSTAR": 0.00045987729, "MEAN_MOTION_DOT": 1.504e-05, "MEAN_MOTION_DDOT": 0}, "tle": {"line1": "1 33761U 93036J   25348.79491141  .00001504  00000+0  45988-3 0  9995", "line2": "2 33761  74.0367 248.3497 0023124 328.3279  88.1057 14.42552958882644"}}, "geometry": {"type": "Point", "coordinates": [45.818182324582, 52.141239448848204]}}, {"type": "Feature", "properties": {"norad_id": 33762, "name": "COSMOS 2251 DEB", "group": "cosmos-2251-debris", "lat": 49.46879077694293, "lon": -35.09002424817117, "alt_km": 767.1714200683882, "timestamp": "2025-12-15T07:02:38.007115+00:00", "meta": {"OBJECT_NAME": "COSMOS 2251 DEB", "OBJECT_ID": "1993-036K", "EPOCH": "2025-12-14T07:55:14.949696", "MEAN_MOTION": 14.33664394, "ECCENTRICITY": 0.00150662, "INCLINATION": 74.0418, "RA_OF_ASC_NODE": 307.1189, "ARG_OF_PERICENTER": 8.1757, "MEAN_ANOMALY": 113.3893, "EPHEMERIS_TYPE": 0, "CLASSIFICATION_TYPE": "U", "NORAD_CAT_ID": 33762, "ELEMENT_SET_NO": 999, "REV_AT_EPOCH": 88070, "BSTAR": 7.5244323e-05, "MEAN_MOTION_DOT": 1.83e-06, "MEAN_MOTION_DDOT": 0}, "tle": {"line1": "1 33762U 93036K   25348.33003414  .00000183  00000+0  75244-4 0  9999", "line2": "2 33762  74.0418 307.1189 0015066   8.1757 113.3893 14.33664394880706"}}, "geometry": {"type": "Point", "coordinates": [-35.09002424817117, 49.46879077694293]}}, {"type": "Feature", "properties": {"norad_id": 33764, "name": "COSMOS 2251 DEB", "group": "cosmos-2251-debris", "lat": -61.276549176907324, "lon": 119.43669174438551, "alt_km": 750.293274681042, "timestamp": "2025-12-15T07:02:38.007126+00:00", "meta": {"OBJECT_NAME": "COSMOS 2251 DEB", "OBJECT_ID": "1993-036M", "EPOCH": "2025-12-14T21:53:12.842016", "MEAN_MOTION": 14.39515004, "ECCENTRICITY": 0.00238391, "INCLINATION": 74.0336, "RA_OF_ASC_NODE": 268.646, "ARG_OF_PERICENTER": 234.0067, "MEAN_ANOMALY": 195.2443, "EPHEMERIS_TYPE": 0, "CLASSIFICATION_TYPE": "U", "NORAD_CAT_ID": 33764, "ELEMENT_SET_NO": 999, "REV_AT_EPOCH": 88188, "BSTAR": 0.00034791329, "MEAN_MOTION_DOT": 1.062e-05, "MEAN_MOTION_DDOT": 0}, "tle": {"line1": "1 33764U 93036M   25348.91195419  .00001062  00000+0  34791-3 0  9990", "line2": "2 33764  74.0336 268.6460 0023839 234.0067 195.2443 14.39515004881880"}}, "geometry": {"type": "Point", "coordinates": [119.43669174438551, -61.276549176907324]}}, {"type": "Feature", "properties": {"norad_id": 33765, "name": "COSMOS 2251 DEB", "group": "cosmos-2251-debris", "lat": 3.2010510491776913, "lon": 168.7448195256499, "alt_km": 548.5832336441645, "timestamp": "2025-12-15T07:02:38.007136+00:00", "meta": {"OBJECT_NAME": "COSMOS 2251 DEB", "OBJECT_ID": "1993-036N", "EPOCH": "2025-12-14T21:48:18.080640", "MEAN_MOTION": 15.10139315, "ECCENTRICITY": 0.00651166, "INCLINATION": 74.008, "RA_OF_ASC_NODE": 168.6216, "ARG_OF_PERICENTER": 260.382, "MEAN_ANOMALY": 170.4321, "EPHEMERIS_TYPE": 0, "CLASSIFICATION_TYPE": "U", "NORAD_CAT_ID": 33765, "ELEMENT_SET_NO": 999, "REV_AT_EPOCH": 89651, "BSTAR": 0.0012084787, "MEAN_MOTION_DOT": 0.00020747, "MEAN_MOTION_DDOT": 0}, "tle": {"line1": "1 33765U 93036N   25348.90854260  .00020747  00000+0  12085-2 0  9998", "line2": "2 33765  74.0080 168.6216 0065116 260.3820 170.4321 15.10139315896511"}}, "geometry": {"type": "Point", "coordinates": [168.7448195256499, 3.2010510491776913]}}, {"type": "Feature", "properties": {"norad_id": 33766, "name": "COSMOS 2251 DEB", "group": "cosmos-2251-debris", "lat": -60.116880956063966, "lon": -20.10521541089882, "alt_km": 780.7570360267991, "timestamp": "2025-12-15T07:02:38.007147+00:00", "meta": {"OBJECT_NAME": "COSMOS 2251 DEB", "OBJECT_ID": "1993-036P", "EPOCH": "2025-12-14T19:51:53.606592", "MEAN_MOTION": 14.34941069, "ECCENTRICITY": 0.00642644, "INCLINATION": 74.1856, "RA_OF_ASC_NODE": 131.1873, "ARG_OF_PERICENTER": 333.989, "MEAN_ANOMALY": 25.8037, "EPHEMERIS_TYPE": 0, "CLASSIFICATION_TYPE": "U", "NORAD_CAT_ID": 33766, "ELEMENT_SET_NO": 999, "REV_AT_EPOCH": 87775, "BSTAR": 0.00046907585, "MEAN_MOTION_DOT": 1.341e-05, "MEAN_MOTION_DDOT": 0}, "tle": {"line1": "1 33766U 93036P   25348.82770378  .00001341  00000+0  46908-3 0  9998", "line2": "2 33766  74.1856 131.1873 0064264 333.9890  25.8037 14.34941069877759"}}, "geometry": {"type": "Point", "coordinates": [-20.10521541089882, -60.116880956063966]}}, {"type": "Feature", "properties": {"norad_id": 33768, "name": "COSMOS 2251 DEB", "group": "cosmos-2251-debris", "lat": -10.083700015738982, "lon": 38.65821904737955, "alt_km": 1316.6741509111162, "timestamp": "2025-12-15T07:02:38.007158+00:00", "meta": {"OBJECT_NAME": "COSMOS 2251 DEB", "OBJECT_ID": "1993-036R", "EPOCH": "2025-12-14T21:43:37.485408", "MEAN_MOTION": 13.58456551, "ECCENTRICITY": 0.03664328, "INCLINATION": 74.0677, "RA_OF_ASC_NODE": 216.3729, "ARG_OF_PERICENTER": 13.6406, "MEAN_ANOMALY": 78.7891, "EPHEMERIS_TYPE": 0, "CLASSIFICATION_TYPE": "U", "NORAD_CAT_ID": 33768, "ELEMENT_SET_NO": 999, "REV_AT_EPOCH": 83325, "BSTAR": 0.00034554214, "MEAN_MOTION_DOT": 3.69e-06, "MEAN_MOTION_DDOT": 0}, "tle": {"line1": "1 33768U 93036R   25348.90529497  .00000369  00000+0  34554-3 0  9996", "line2": "2 33768  74.0677 216.3729 0366432  13.6406  78.7891 13.58456551833258"}}, "geometry": {"type": "Point", "coordinates": [38.65821904737955, -10.083700015738982]}}]}